{"type": "FeatureCollection", "features": [ {"type": "Feature", "properties": {"norad_id": 30628, "name": "FENGYUN 1C DEB", "group": "fengyun-1c-debris", "lat": 39.47184608590574, "lon": 81.69723208593366, "alt_km": 673.5381684232816, "timestamp": "2025-12-05T05:43:15.387152+00:00", "meta": {"OBJECT_NAME": "FENGYUN 1C DEB", "OBJECT_ID": "1999-025ANK", "EPOCH": "2025-12-04T01:17:13.560288", "MEAN_MOTION": 14.68572627, "ECCENTRICITY": 0.00237549, "INCLINATION": 99.3395, "RA_OF_ASC_NODE": 252.5566, "ARG_OF_PERICENTER": 275.8858, "MEAN_ANOMALY": 83.9636, "EPHEMERIS_TYPE": 0, "CLASSIFICATION_TYPE": "U", "NORAD_CAT_ID": 30628, "ELEMENT_SET_NO": 999, "REV_AT_EPOCH": 98343, "BSTAR": 0.0068855023, "MEAN_MOTION_DOT": 0.00040319, "MEAN_MOTION_DDOT": 0}, "tle": {"line1": "1 30628U 99025ANK 25338.05362917  .00040319  00000+0  68855-2 0  9998", "line2": "2 30628  99.3395 252.5566 0023754 275.8858  83.9636 14.68572627983434"}}, "geometry": {"type": "Point", "coordinates": [81.69723208593366, 39.47184608590574]}}, {"type": "Feature", "properties": {"norad_id": 30629, "name": "FENGYUN 1C DEB", "group": "fengyun-1c-debris", "lat": -6.757552522160806, "lon": -106.7891430903979, "alt_km": 694.5319713660747, "timestamp": "2025-12-05T05:43:15.387162+00:00", "meta": {"OBJECT_NAME": "FENGYUN 1C DEB", "OBJECT_ID": "1999-025ANL", "EPOCH": "2025-12-04T12:29:44.191104", "MEAN_MOTION": 14.59208818, "ECCENTRICITY": 0.0007728, "INCLINATION": 99.2521, "RA_OF_ASC_NODE": 73.5185, "ARG_OF_PERICENTER": 217.2667, "MEAN_ANOMALY": 161.2963, "EPHEMERIS_TYPE": 0, "CLASSIFICATION_TYPE": "U", "NORAD_CAT_ID": 30629, "ELEMENT_SET_NO": 999, "REV_AT_EPOCH": 97770, "BSTAR": 0.0079298, "MEAN_MOTION_DOT": 0.0003757, "MEAN_MOTION_DDOT": 0}, "tle": {"line1": "1 30629U 99025ANL 25338.52065036  .00037570  00000+0  79298-2 0  9991", "line2": "2 30629  99.2521  73.5185 0007728 217.2667 161.2963 14.59208818977708"}}, "geometry": {"type": "Point", "coordinates": [-106.7891430903979, -6.757552522160806]}}, {"type": "Feature", "properties": {"norad_id": 30630, "name": "FENGYUN 1C DEB", "group": "fengyun-1c-debris", "lat": 63.057148816303, "lon": 133.43551717799033, "alt_km": 795.2157122596482, "timestamp": "2025-12-05T05:43:15.387199+00:00", "meta": {"OBJECT_NAME": "FENGYUN 1C DEB", "OBJECT_ID": "1999-025ANM", "EPOCH": "2025-12-02T10:10:40.778112", "MEAN_MOTION": 14.22312353, "ECCENTRICITY": 0.00260324, "INCLINATION": 99.1724, "RA_OF_ASC_NODE": 149.0444, "ARG_OF_PERICENTER": 103.5434, "MEAN_ANOMALY": 319.0893, "EPHEMERIS_TYPE": 0, "CLASSIFICATION_TYPE": "U", "NORAD_CAT_ID": 30630, "ELEMENT_SET_NO": 999, "REV_AT_EPOCH": 97066, "BSTAR": 0.0011446501, "MEAN_MOTION_DOT": 2.506e-05, "MEAN_MOTION_DDOT": 0}, "tle": {"line1": "1 30630U 99025ANM 25336.42408308  .00002506  00000+0  11447-2 0  9996", "line2": "2 30630  99.1724 149.0444 0026032 103.5434 319.0893 14.22312353970662"}}, "geometry": {"type": "Point", "coordinates": [133.43551717799033, 63.057148816303]}}, {"type": "Feature", "properties": {"norad_id": 30632, "name": "FENGYUN 1C DEB", "group": "fengyun-1c-debris", "lat": -70.42820508301112, "lon": -95.82788652581374, "alt_km": 687.5400847826158, "timestamp": "2025-12-05T05:43:15.387216+00:00", "meta": {"OBJECT_NAME": "FENGYUN 1C DEB", "OBJECT_ID": "1999-025ANP", "EPOCH": "2025-12-04T07:28:54.755040", "MEAN_MOTION": 14.62252326, "ECCENTRICITY": 0.0015664, "INCLINATION": 98.8231, "RA_OF_ASC_NODE": 109.0881, "ARG_OF_PERICENTER": 194.0325, "MEAN_ANOMALY": 223.0656, "EPHEMERIS_TYPE": 0, "CLASSIFICATION_TYPE": "U", "NORAD_CAT_ID": 30632, "ELEMENT_SET_NO": 999, "REV_AT_EPOCH": 97568, "BSTAR": 0.0094556, "MEAN_MOTION_DOT": 0.00048039, "MEAN_MOTION_DDOT": 0}, "tle": {"line1": "1 30632U 99025ANP 25338.31174485  .00048039  00000+0  94556-2 0  9997", "line2": "2 30632  98.8231 109.0881 0015664 194.0325 223.0656 14.62252326975682"}}, "geometry": {"type": "Point", "coordinates": [-95.82788652581374, -70.42820508301112]}}, {"type": "Feature", "properties": {"norad_id": 30633, "name": "FENGYUN 1C DEB", "group": "fengyun-1c-debris", "lat": -81.54348089305668, "lon": -60.324255381897885, "alt_km": 793.1408959299606, "timestamp": "2025-12-05T05:43:15.387227+00:00", "meta": {"OBJECT_NAME": "FENGYUN 1C DEB", "OBJECT_ID": "1999-025ANQ", "EPOCH": "2025-12-04T15:03:17.043840", "MEAN_MOTION": 14.04352276, "ECCENTRICITY": 0.013096, "INCLINATION": 98.4209, "RA_OF_ASC_NODE": 204.2132, "ARG_OF_PERICENTER": 283.2352, "MEAN_ANOMALY": 138.6068, "EPHEMERIS_TYPE": 0, "CLASSIFICATION_TYPE": "U", "NORAD_CAT_ID": 30633, "ELEMENT_SET_NO": 999, "REV_AT_EPOCH": 95778, "BSTAR": 0.0018409, "MEAN_MOTION_DOT": 3.121e-05, "MEAN_MOTION_DDOT": 0}, "tle": {"line1": "1 30633U 99025ANQ 25338.62728060  .00003121  00000+0  18409-2 0  9992", "line2": "2 30633  98.4209 204.2132 0130960 283.2352 138.6068 14.04352276957789"}}, "geometry": {"type": "Point", "coordinates": [-60.324255381897885, -81.54348089305668]}}, {"type": "Feature", "properties": {"norad_id": 30634, "name": "FENGYUN 1C DEB", "group": "fengyun-1c-debris", "lat": 46.92541040343799, "lon": 151.90193285959208, "alt_km": 771.9577240905473, "timestamp": "2025-12-05T05:43:15.387239+00:00", "meta": {"OBJECT_NAME": "FENGYUN 1C DEB", "OBJECT_ID": "1999-025ANR", "EPOCH": "2025-12-04T10:58:12.751392", "MEAN_MOTION": 14.09621003, "ECCENTRICITY": 0.012052, "INCLINATION": 99.2908, "RA_OF_ASC_NODE": 321.0124, "ARG_OF_PERICENTER": 119.6723, "MEAN_ANOMALY": 9.6048, "EPHEMERIS_TYPE": 0, "CLASSIFICATION_TYPE": "U", "NORAD_CAT_ID": 30634, "ELEMENT_SET_NO": 999, "REV_AT_EPOCH": 95500, "BSTAR": 0.0037234, "MEAN_MOTION_DOT": 6.936e-05, "MEAN_MOTION_DDOT": 0}, "tle": {"line1": "1 30634U 99025ANR 25338.45709203  .00006936  00000+0  37234-2 0  9996", "line2": "2 30634  99.2908 321.0124 0120520 119.6723   9.6048 14.09621003955009"}}, "geometry": {"type": "Point", "coordinates": [151.90193285959208, 46.92541040343799]}}, {"type": "Feature", "properties": {"norad_id": 30639, "name": "FENGYUN 1C DEB", "group": "fengyun-1c-debris", "lat": -80.96403267762864, "lon": -176.1765537927855, "alt_km": 751.9257691998637, "timestamp": "2025-12-05T05:43:15.387249+00:00", "meta": {"OBJECT_NAME": "FENGYUN 1C DEB", "OBJECT_ID": "1999-025ANW", "EPOCH": "2025-12-04T13:22:13.314720", "MEAN_MOTION": 14.32131215, "ECCENTRICITY": 0.0066756, "INCLINATION": 99.0189, "RA_OF_ASC_NODE": 90.2193, "ARG_OF_PERICENTER": 305.1206, "MEAN_ANOMALY": 54.3731, "EPHEMERIS_TYPE": 0, "CLASSIFICATION_TYPE": "U", "NORAD_CAT_ID": 30639, "ELEMENT_SET_NO": 999, "REV_AT_EPOCH": 96602, "BSTAR": 0.0065032, "MEAN_MOTION_DOT": 0.00017929, "MEAN_MOTION_DDOT": 0}, "tle": {"line1": "1 30639U 99025ANW 25338.55709855  .00017929  00000+0  65032-2 0  9996", "line2": "2 30639  99.0189  90.2193 0066756 305.1206  54.3731 14.32131215966029"}}, "geometry": {"type": "Point", "coordinates": [-176.1765537927855, -80.96403267762864]}}, {"type": "Feature", "properties": {"norad_id": 30640, "name": "FENGYUN 1C DEB", "group": "fengyun-1c-debris", "lat": 17.663245214915957, "lon": -126.74935440819421, "alt_km": 799.1456998317672, "timestamp": "2025-12-05T05:43:15.387259+00:00", "meta": {"OBJECT_NAME": "FENGYUN 1C DEB", "OBJECT_ID": "1999-025ANX", "EPOCH": "2025-12-04T10:53:35.536128", "MEAN_MOTION": 14.14561513, "ECCENTRICITY": 0.0081419, "INCLINATION": 99.0586, "RA_OF_ASC_NODE": 49.5431, "ARG_OF_PERICENTER": 123.7887, "MEAN_ANOMALY": 4.8591, "EPHEMERIS_TYPE": 0, "CLASSIFICATION_TYPE": "U", "NORAD_CAT_ID": 30640, "ELEMENT_SET_NO": 999, "REV_AT_EPOCH": 96328, "BSTAR": 0.0034573, "MEAN_MOTION_DOT": 6.813e-05, "MEAN_MOTION_DDOT": 0}, "tle": {"line1": "1 30640U 99025ANX 25338.45388352  .00006813  00000+0  34573-2 0  9998", "line2": "2 30640  99.0586  49.5431 0081419 123.7887   4.8591 14.14561513963283"}}, "geometry": {"type": "Point", "coordinates": [-126.74935440819421, 17.663245214915957]}}, {"type": "Feature", "properties": {"norad_id": 30641, "name": "FENGYUN 1C DEB", "group": "fengyun-1c-debris", "lat": 4.072531632514299, "lon": 93.42344144762305, "alt_km": 549.2416249477483, "timestamp": "2025-12-05T05:43:15.387269+00:00", "meta": {"OBJECT_NAME": "FENGYUN 1C DEB", "OBJECT_ID": "1999-025ANY", "EPOCH": "2025-12-03T19:04:58.627200", "MEAN_MOTION": 14.78845791, "ECCENTRICITY": 0.01358606, "INCLINATION": 98.9415, "RA_OF_ASC_NODE": 271.1781, "ARG_OF_PERICENTER": 154.6514, "MEAN_ANOMALY": 261.2956, "EPHEMERIS_TYPE": 0, "CLASSIFICATION_TYPE": "U", "NORAD_CAT_ID": 30641, "ELEMENT_SET_NO": 999, "REV_AT_EPOCH": 400, "BSTAR": 0.00071433134, "MEAN_MOTION_DOT": 6.075e-05, "MEAN_MOTION_DDOT": 0}, "tle": {"line1": "1 30641U 99025ANY 25337.79512300  .00006075  00000+0  71433-3 0  9994", "line2": "2 30641  98.9415 271.1781 0135860 154.6514 261.2956 14.78845791  4007"}}, "geometry": {"type": "Point", "coordinates": [93.42344144762305, 4.072531632514299]}}, {"type": "Feature", "properties": {"norad_id": 30646, "name": "FENGYUN 1C DEB", "group": "fengyun-1c-debris", "lat": -18.567702559844705, "lon": 3.001688205652539, "alt_km": 854.5615363868319, "timestamp": "2025-12-05T05:43:15.387279+00:00", "meta": {"OBJECT_NAME": "FENGYUN 1C DEB", "OBJECT_ID": "1999-025APD", "EPOCH": "2025-12-04T14:28:39.764064", "MEAN_MOTION": 14.09622797, "ECCENTRICITY": 0.0048595, "INCLINATION": 98.6527, "RA_OF_ASC_NODE": 359.4593, "ARG_OF_PERICENTER": 55.051, "MEAN_ANOMALY": 305.5211, "EPHEMERIS_TYPE": 0, "CLASSIFICATION_TYPE": "U", "NORAD_CAT_ID": 30646, "ELEMENT_SET_NO": 999, "REV_AT_EPOCH": 96490, "BSTAR": 0.0010431, "MEAN_MOTION_DOT": 1.806e-05, "MEAN_MOTION_DDOT": 0}, "tle": {"line1": "1 30646U 99025APD 25338.60323801  .00001806  00000+0  10431-2 0  9993", "line2": "2 30646  98.6527 359.4593 0048595  55.0510 305.5211 14.09622797964905"}}, "geometry": {"type": "Point", "coordinates": [3.001688205652539, -18.567702559844705]}}]}